{"type":"FeatureCollection","features":[{"type":"Feature","properties":{"code":"01"},"geometry":{"type":"MultiPolygon","coordinates":[[[[18.2029,59.4398],[18.1973,59.4426],[18.173,59.4361],[18.1613,59.4364],[18.1538,59.4514],[18.1422,59.4489],[18.1097,59.4364],[18.1163,59.4318],[18.1013,59.4255],[18.0969,59.4192],[18.0958,59.4051],[18.0879,59.3933],[18.0603,59.378],[18.0975,59.3553],[18.1243,59.3436],[18.1375,59.3332],[18.1374,59.3264],[18.1245,59.3217],[18.1084,59.3238],[18.0912,59.3333],[18.0705,59.3328],[18.0775,59.3276],[18.0666,59.3225],[18.1025,59.3171],[18.1205,59.3154],[18.143,59.3182],[18.198,59.332],[18.205,59.3311],[18.2071,59.3028],[18.2136,59.2973],[18.252,59.297],[18.2717,59.2981],[18.2869,59.2951],[18.2987,59.2783],[18.3377,59.2729],[18.3415,59.266],[18.3308,59.263],[18.2764,59.2711],[18.2545,59.2677],[18.2647,59.26],[18.2886,59.2584],[18.3403,59.2385],[18.3572,59.2273],[18.3871,59.2221],[18.404,59.2052],[18.3961,59.199],[18.3752,59.1929],[18.3655,59.1814],[18.3789,59.1738],[18.4106,59.1674],[18.441,59.1723],[18.449,59.1687],[18.4267,59.1444],[18.4004,59.1361],[18.3901,59.1363],[18.3764,59.1417],[18.3516,59.1293],[18.3285,59.1302],[18.2846,59.1203],[18.2694,59.1066],[18.3155,59.1077],[18.3179,59.1009],[18.3009,59.0933],[18.2521,59.0852],[18.2281,59.0791],[18.2136,59.0707],[18.2018,59.069],[18.1991,59.0798],[18.2255,59.0902],[18.2206,59.0984],[18.2277,59.1046],[18.2482,59.1085],[18.2579,59.1136],[18.2479,59.1223],[18.225,59.1209],[18.2117,59.1175],[18.203,59.1093],[18.2109,59.1051],[18.2064,59.0995],[18.1889,59.0929],[18.1426,59.084],[18.1369,59.0794],[18.1087,59.0754],[18.0946,59.0593],[18.0422,59.0528],[18.0339,59.0352],[18.0262,59.0297],[18.0149,59.0327],[18.0126,59.0414],[18.0,59.0428],[17.9979,59.0371],[18.0073,59.0029],[17.9939,58.9985],[17.9838,59.0129],[17.9739,58.993],[17.9559,58.9685],[17.9635,58.9361],[17.9522,58.9135],[17.9295,58.9056],[17.9069,58.8927],[17.8909,58.8682],[17.8754,58.8602],[17.8486,58.8114],[17.7855,58.8024],[17.7858,58.8121],[17.8176,58.8349],[17.8217,58.8507],[17.8006,58.8773],[17.7765,58.9014],[17.754,58.914],[17.7472,58.9242],[17.7536,58.9302],[17.7573,58.9677],[17.7459,58.977],[17.7474,58.9851],[17.7568,58.9956],[17.748,59.0247],[17.7366,59.0404],[17.7375,59.0501],[17.7491,59.0627],[17.7609,59.0711],[17.7575,59.082],[17.7644,59.0936],[17.7777,59.0966],[17.7725,59.1102],[17.7743,59.1209],[17.7381,59.1083],[17.7322,59.1017],[17.7375,59.0834],[17.7357,59.0714],[17.7055,59.066],[17.6914,59.068],[17.6897,59.0969],[17.7011,59.1148],[17.6917,59.1427],[17.6739,59.1681],[17.667,59.1713],[17.6569,59.1668],[17.6592,59.1577],[17.6759,59.1426],[17.6809,59.1267],[17.68,59.1169],[17.6737,59.112],[17.6549,59.1124],[17.6485,59.1065],[17.6532,59.1014],[17.6183,59.088],[17.6181,59.0789],[17.6319,59.0739],[17.6333,59.0679],[17.615,59.0521],[17.6151,59.0118],[17.6215,58.9982],[17.6329,59.0023],[17.6481,59.0205],[17.6569,59.0516],[17.6723,59.0573],[17.686,59.0516],[17.6886,59.0388],[17.6952,58.9593],[17.687,58.9407],[17.6761,58.9352],[17.658,58.9406],[17.637,58.9431],[17.619,58.9048],[17.6001,58.9478],[17.5253,58.9678],[17.5216,58.9917],[17.364,58.9922],[17.289,59.0501],[17.3039,59.1416],[17.2542,59.1904],[17.2403,59.2422],[17.2848,59.268],[17.3023,59.2519],[17.3314,59.257],[17.3619,59.2571],[17.4178,59.2423],[17.4146,59.2504],[17.3807,59.2789],[17.3768,59.2857],[17.3784,59.3116],[17.3685,59.3175],[17.3666,59.3252],[17.3838,59.3283],[17.3897,59.3214],[17.4251,59.3097],[17.4381,59.3098],[17.4658,59.2921],[17.5444,59.269],[17.5665,59.2685],[17.578,59.2602],[17.5905,59.2401],[17.6149,59.2104],[17.6291,59.2084],[17.6323,59.2157],[17.6198,59.2341],[17.6143,59.2563],[17.5981,59.2726],[17.6041,59.2812],[17.624,59.2851],[17.6347,59.2816],[17.6549,59.2818],[17.6562,59.2885],[17.6838,59.2852],[17.7084,59.277],[17.7164,59.266],[17.7367,59.2562],[17.7592,59.2647],[17.7809,59.2604],[17.841,59.2626],[17.8585,59.2561],[17.8722,59.237],[17.8825,59.2446],[17.8826,59.2733],[17.8759,59.2796],[17.8808,59.2899],[17.9049,59.2957],[17.9219,59.3031],[17.9618,59.3109],[17.9854,59.313],[17.9931,59.3175],[18.0159,59.3176],[18.0385,59.3215],[18.0618,59.3231],[18.0677,59.3325],[18.029,59.3301],[18.0112,59.3349],[17.9941,59.3456],[17.9933,59.3461],[17.9841,59.3433],[17.9823,59.3329],[17.9753,59.3223],[17.9483,59.3186],[17.9317,59.3287],[17.913,59.3305],[17.8949,59.3444],[17.857,59.3563],[17.797,59.389],[17.7768,59.4028],[17.7737,59.4109],[17.7757,59.424],[17.7958,59.4552],[17.8068,59.467],[17.7985,59.4728],[17.7827,59.4676],[17.7724,59.4826],[17.7598,59.4815],[17.751,59.4649],[17.7522,59.4444],[17.7396,59.4356],[17.7293,59.4371],[17.7299,59.4432],[17.6997,59.4485],[17.6981,59.4657],[17.6888,59.4713],[17.6878,59.481],[17.6467,59.4957],[17.6259,59.4971],[17.6119,59.4884],[17.6218,59.475],[17.6173,59.4691],[17.601,59.4694],[17.5959,59.4776],[17.5965,59.4978],[17.5891,59.5026],[17.5766,59.5019],[17.5707,59.4956],[17.576,59.4888],[17.568,59.4876],[17.5321,59.5095],[17.5312,59.5213],[17.5605,59.5328],[17.5719,59.5493],[17.5669,59.562],[17.5724,59.5759],[17.5342,59.5951],[17.5312,59.6127],[17.5452,59.6288],[17.5611,59.6372],[17.5757,59.6383],[17.591,59.6499],[17.5826,59.656],[17.6115,59.6691],[17.6398,59.6759],[17.6356,59.695],[17.6926,59.691],[17.7055,59.682],[17.731,59.6794],[17.7363,59.6665],[17.7552,59.6651],[17.7685,59.6792],[17.7915,59.6855],[17.8132,59.685],[17.8238,59.68],[17.8434,59.685],[17.8382,59.6918],[17.9176,59.7071],[17.9374,59.7077],[17.955,59.7127],[17.9881,59.726],[18.0092,59.7262],[18.0368,59.7369],[18.0463,59.734],[18.0677,59.7365],[18.0891,59.7362],[18.1399,59.8142],[18.2974,59.833],[18.3738,59.8689],[18.4031,59.9958],[18.4419,60.0037],[18.3817,60.0453],[18.4625,60.0567],[18.4891,60.1056],[18.511,60.1549],[18.6102,60.1416],[18.676,60.1309],[18.7084,60.1629],[18.7212,60.2129],[18.7991,60.172],[18.7815,60.1078],[18.8201,60.092],[18.8598,60.0031],[18.9288,59.9373],[19.0217,59.9005],[19.0845,59.8715],[19.0413,59.8186],[18.9697,59.821],[18.9696,59.7772],[19.0686,59.7599],[19.0754,59.7155],[19.0151,59.6969],[18.8595,59.7061],[18.7415,59.6757],[18.7242,59.6225],[18.6673,59.5774],[18.6299,59.565],[18.6082,59.5596],[18.5451,59.5378],[18.5364,59.5307],[18.5179,59.5299],[18.4766,59.5078],[18.4671,59.5051],[18.4539,59.4933],[18.4367,59.4864],[18.4167,59.4842],[18.411,59.4743],[18.39,59.4577],[18.3761,59.4561],[18.3474,59.4572],[18.3416,59.4634],[18.3165,59.4613],[18.2998,59.4695],[18.2854,59.4692],[18.2775,59.463],[18.3024,59.4577],[18.3075,59.4515],[18.2911,59.4395],[18.2692,59.4367],[18.2527,59.4412],[18.2356,59.4403],[18.2288,59.4351],[18.2345,59.4302],[18.2633,59.4305],[18.2856,59.4141],[18.269,59.4061],[18.2725,59.4023],[18.2947,59.4028],[18.3027,59.3982],[18.2942,59.3927],[18.2717,59.3899],[18.2147,59.3883],[18.2008,59.3924],[18.1635,59.3974],[18.1686,59.4194],[18.1752,59.426],[18.195,59.4225],[18.203,59.4239],[18.2029,59.4398]]],[[[18.5738,59.4513],[18.5723,59.4393],[18.5607,59.4302],[18.5448,59.4289],[18.5464,59.4467],[18.5265,59.4604],[18.5253,59.4772],[18.5137,59.4849],[18.52,59.4935],[18.5322,59.4965],[18.5445,59.4952],[18.5469,59.4884],[18.5596,59.485],[18.5759,59.5003],[18.5527,59.5033],[18.5623,59.5122],[18.5617,59.5182],[18.5848,59.5297],[18.5906,59.5393],[18.6348,59.5521],[18.6611,59.5625],[18.6725,59.5594],[18.6628,59.55],[18.6766,59.5503],[18.6764,59.5385],[18.6886,59.5311],[18.6726,59.5295],[18.6465,59.5098],[18.6367,59.4996],[18.5993,59.4936],[18.5931,59.4861],[18.6,59.4731],[18.5984,59.46],[18.592,59.4558],[18.5789,59.4562],[18.5738,59.4513]]],[[[18.3949,59.3601],[18.4159,59.3562],[18.4473,59.3402],[18.4471,59.3331],[18.4336,59.3291],[18.4372,59.321],[18.4186,59.307],[18.4123,59.2981],[18.4214,59.2925],[18.4517,59.295],[18.4765,59.2906],[18.499,59.283],[18.508,59.276],[18.5473,59.2675],[18.5519,59.2731],[18.5395,59.2785],[18.5409,59.2841],[18.6104,59.2886],[18.6805,59.2973],[18.6851,59.2921],[18.6359,59.2629],[18.6391,59.2575],[18.6035,59.2535],[18.5923,59.2474],[18.5664,59.2431],[18.5651,59.232],[18.5484,59.2288],[18.5244,59.2184],[18.4823,59.2246],[18.4711,59.2397],[18.4493,59.2423],[18.4243,59.2507],[18.4142,59.2648],[18.3979,59.2699],[18.3782,59.2852],[18.3465,59.2864],[18.3333,59.2908],[18.3499,59.2994],[18.3431,59.3134],[18.3469,59.3184],[18.3632,59.3233],[18.3711,59.3301],[18.361,59.3324],[18.3432,59.3314],[18.33,59.3349],[18.3048,59.3373],[18.2937,59.3144],[18.2586,59.3035],[18.2347,59.3052],[18.2234,59.3088],[18.2221,59.3206],[18.2267,59.344],[18.2598,59.3539],[18.2645,59.3608],[18.307,59.3618],[18.3244,59.36],[18.3454,59.361],[18.3595,59.3587],[18.3949,59.3601]]],[[[18.4447,59.4061],[18.4361,59.4165],[18.4545,59.417],[18.4653,59.42],[18.4996,59.4167],[18.5051,59.4139],[18.5192,59.39],[18.5843,59.3673],[18.6025,59.3722],[18.6155,59.3715],[18.6218,59.3595],[18.6122,59.3551],[18.5691,59.3553],[18.5493,59.3535],[18.5544,59.3466],[18.5761,59.3487],[18.6054,59.3428],[18.6268,59.3365],[18.6346,59.3262],[18.6336,59.3178],[18.625,59.3066],[18.6117,59.2993],[18.5181,59.2898],[18.4837,59.3015],[18.4563,59.3063],[18.4573,59.3147],[18.4688,59.3399],[18.4692,59.3487],[18.4559,59.3631],[18.467,59.38],[18.4674,59.3887],[18.4562,59.4038],[18.4447,59.4061]]],[[[18.73,59.3537],[18.7314,59.3287],[18.7244,59.3192],[18.7086,59.3129],[18.6722,59.3032],[18.6646,59.3055],[18.6708,59.3235],[18.6715,59.3345],[18.6648,59.3482],[18.6372,59.3725],[18.6685,59.378],[18.6844,59.3691],[18.6954,59.3738],[18.7209,59.3637],[18.73,59.3537]]],[[[18.8541,59.4138],[18.8509,59.4294],[18.8584,59.4362],[18.8737,59.4435],[18.8913,59.4477],[18.9193,59.4468],[18.9228,59.4339],[18.9032,59.4291],[18.9011,59.4181],[18.8698,59.4036],[18.8599,59.3935],[18.8455,59.3879],[18.8361,59.3909],[18.8513,59.4072],[18.8541,59.4138]]],[[[18.7799,59.3001],[18.8001,59.2904],[18.7771,59.2786],[18.7715,59.2654],[18.7565,59.2597],[18.742,59.2635],[18.7144,59.2613],[18.7143,59.2707],[18.7243,59.2832],[18.766,59.2988],[18.7799,59.3001]]],[[[18.9393,59.3766],[18.9314,59.3715],[18.9146,59.3723],[18.9107,59.3775],[18.9126,59.3966],[18.9062,59.4025],[18.9205,59.4068],[18.9241,59.414],[18.9344,59.4181],[18.9518,59.4159],[18.9553,59.408],[18.9351,59.3939],[18.9393,59.3766]]],[[[18.6941,59.2189],[18.7048,59.2162],[18.6988,59.2046],[18.7249,59.2106],[18.7384,59.2095],[18.732,59.2006],[18.7205,59.1966],[18.7027,59.1948],[18.6666,59.1861],[18.6502,59.1795],[18.653,59.1861],[18.6836,59.2128],[18.6941,59.2189]]],[[[18.9065,59.3507],[18.8941,59.346],[18.8932,59.3393],[18.8813,59.3279],[18.8938,59.3141],[18.8848,59.31],[18.8519,59.3124],[18.8591,59.3182],[18.8684,59.3441],[18.8878,59.3577],[18.9046,59.3558],[18.9065,59.3507]]],[[[17.7899,59.3178],[17.7813,59.3103],[17.7608,59.3074],[17.7333,59.3117],[17.7133,59.3276],[17.6971,59.3276],[17.6543,59.3645],[17.6369,59.387],[17.6306,59.4033],[17.6045,59.431],[17.5998,59.45],[17.6139,59.4537],[17.6287,59.4443],[17.6434,59.4407],[17.663,59.4278],[17.6795,59.4221],[17.6909,59.4259],[17.7095,59.4214],[17.7306,59.4102],[17.7039,59.4051],[17.7021,59.3991],[17.7132,59.3861],[17.7314,59.386],[17.735,59.3957],[17.7622,59.38],[17.7758,59.3659],[17.781,59.3527],[17.7763,59.3312],[17.7868,59.326],[17.7899,59.3178]]],[[[17.5994,59.3626],[17.5881,59.3679],[17.5725,59.389],[17.554,59.3871],[17.544,59.391],[17.5327,59.4171],[17.5484,59.4245],[17.5809,59.4295],[17.5933,59.4293],[17.6365,59.3618],[17.6537,59.3238],[17.6815,59.3212],[17.7001,59.3124],[17.7597,59.2953],[17.7732,59.2937],[17.7977,59.2985],[17.809,59.2936],[17.8394,59.2855],[17.8397,59.2754],[17.8131,59.2699],[17.7842,59.2736],[17.7639,59.2794],[17.7268,59.2792],[17.6855,59.2963],[17.6323,59.3115],[17.6245,59.3248],[17.6284,59.3318],[17.6245,59.3459],[17.6117,59.3486],[17.6177,59.3562],[17.6131,59.3633],[17.5994,59.3626]]],[[[17.4699,59.3871],[17.4676,59.3912],[17.4712,59.4163],[17.4919,59.4213],[17.5054,59.4193],[17.5093,59.4118],[17.5217,59.4045],[17.5348,59.3834],[17.5428,59.3786],[17.5447,59.3705],[17.5351,59.3585],[17.5399,59.347],[17.5309,59.3408],[17.5192,59.3417],[17.5031,59.3505],[17.4929,59.3611],[17.4964,59.3701],[17.488,59.378],[17.4699,59.3871]]],[[[17.8771,59.3105],[17.8607,59.3031],[17.8466,59.3055],[17.8083,59.3329],[17.8064,59.339],[17.8208,59.3534],[17.8418,59.355],[17.8564,59.351],[17.8701,59.3379],[17.8794,59.3336],[17.8906,59.3344],[17.8771,59.3105]]],[[[18.3942,59.0108],[18.3881,59.0194],[18.3637,59.0153],[18.3451,59.0219],[18.3412,59.0334],[18.3648,59.0473],[18.3489,59.0494],[18.3456,59.0542],[18.3749,59.0725],[18.3658,59.0782],[18.3707,59.0814],[18.4112,59.09],[18.4668,59.1218],[18.485,59.1008],[18.4781,59.0916],[18.4542,59.0811],[18.4526,59.0677],[18.4258,59.0547],[18.417,59.0183],[18.4058,59.0105],[18.3942,59.0108]]],[[[18.194,58.9169],[18.1882,58.9288],[18.1719,58.9212],[18.1475,58.9158],[18.1471,58.9242],[18.2111,58.9498],[18.2718,58.9677],[18.2895,58.9645],[18.3223,58.9744],[18.3455,58.9863],[18.3529,58.9827],[18.3516,58.972],[18.342,58.9669],[18.2901,58.9528],[18.2822,58.9452],[18.3072,58.9331],[18.2747,58.9249],[18.255,58.9271],[18.2208,58.9149],[18.194,58.9169]]],[[[18.0521,58.9699],[18.0581,58.9775],[18.0591,58.9929],[18.0816,59.0038],[18.0813,59.0196],[18.0905,59.0268],[18.1017,59.0288],[18.1339,59.0277],[18.1618,59.0354],[18.1937,59.0309],[18.2059,59.0309],[18.2014,59.025],[18.1874,59.0213],[18.1725,59.021],[18.1633,59.0132],[18.1643,59.0051],[18.1575,59.0012],[18.1462,59.0042],[18.1366,58.9991],[18.1389,58.9909],[18.1505,58.9785],[18.139,58.9738],[18.1214,58.9722],[18.1115,58.9762],[18.1085,58.9843],[18.1006,58.9882],[18.0906,58.9854],[18.0831,58.9755],[18.0736,58.971],[18.0521,58.9699]]],[[[18.1288,59.3909],[18.1752,59.3796],[18.2145,59.3749],[18.2292,59.3776],[18.2427,59.3755],[18.2445,59.3693],[18.2229,59.368],[18.2167,59.3651],[18.2237,59.3579],[18.2178,59.352],[18.1882,59.344],[18.1661,59.3445],[18.1437,59.3485],[18.1301,59.3606],[18.1263,59.3738],[18.1075,59.3813],[18.1058,59.3897],[18.1288,59.3909]]],[[[18.3323,59.4455],[18.3601,59.4313],[18.3369,59.4285],[18.3174,59.4183],[18.3056,59.4233],[18.3141,59.4402],[18.3323,59.4455]]],[[[18.9702,59.6208],[18.914,59.6195],[18.9055,59.5947],[18.8577,59.5993],[18.7724,59.5691],[18.7545,59.5775],[18.8077,59.5987],[18.8565,59.6388],[18.9173,59.6552],[18.9722,59.6414],[18.9702,59.6208]]]]}},{"type":"Feature","properties":{"code":"03"},"geometry":{"type":"Polygon","coordinates":[[[17.5757,59.6383],[17.5611,59.6372],[17.5452,59.6288],[17.5312,59.6127],[17.5342,59.5951],[17.5724,59.5759],[17.5669,59.562],[17.5526,59.5605],[17.54,59.5456],[17.5265,59.5341],[17.5075,59.5338],[17.474,59.5469],[17.4417,59.5681],[17.4142,59.5894],[17.4042,59.6031],[17.3985,59.6196],[17.3661,59.6122],[17.3548,59.6029],[17.4229,59.5272],[17.4258,59.4744],[17.3408,59.4768],[17.2171,59.5327],[17.1032,59.5605],[17.0437,59.5519],[16.9737,59.5313],[16.9048,59.5674],[16.869,59.6744],[16.7946,59.732],[16.7442,59.7813],[16.7998,59.8188],[16.8313,59.8602],[16.7782,59.9],[16.7985,59.9222],[16.7896,59.97],[16.6919,60.0108],[16.7218,60.0416],[16.693,60.1105],[16.7351,60.1187],[16.7204,60.1999],[16.7974,60.2017],[16.8812,60.2416],[16.865,60.2626],[16.9058,60.2871],[17.1004,60.2687],[17.1995,60.3092],[17.2041,60.4287],[17.3008,60.4711],[17.3508,60.6523],[17.6077,60.6496],[17.6028,60.596],[17.6552,60.5245],[17.7311,60.5318],[17.7895,60.5785],[17.9077,60.6026],[17.9879,60.5749],[17.9974,60.5106],[18.1018,60.4381],[18.2706,60.3609],[18.3687,60.3461],[18.4048,60.367],[18.3664,60.4537],[18.3729,60.4969],[18.4088,60.505],[18.4429,60.4169],[18.5117,60.3569],[18.581,60.3442],[18.567,60.3125],[18.4819,60.3101],[18.562,60.2747],[18.6005,60.2352],[18.5698,60.2085],[18.508,60.2097],[18.511,60.1549],[18.4891,60.1056],[18.4625,60.0567],[18.3817,60.0453],[18.4419,60.0037],[18.4031,59.9958],[18.3738,59.8689],[18.2974,59.833],[18.1399,59.8142],[18.0891,59.7362],[18.0677,59.7365],[18.0463,59.734],[18.0368,59.7369],[18.0092,59.7262],[17.9881,59.726],[17.955,59.7127],[17.9374,59.7077],[17.9176,59.7071],[17.8382,59.6918],[17.8434,59.685],[17.8238,59.68],[17.8132,59.685],[17.7915,59.6855],[17.7685,59.6792],[17.7552,59.6651],[17.7363,59.6665],[17.731,59.6794],[17.7055,59.682],[17.6926,59.691],[17.6356,59.695],[17.6398,59.6759],[17.6115,59.6691],[17.5826,59.656],[17.591,59.6499],[17.5757,59.6383]],[[17.6076,59.7338],[17.6061,59.7338],[17.4793,59.7311],[17.6076,59.7338]]]}},{"type":"Feature","properties":{"code":"04"},"geometry":{"type":"Polygon","coordinates":[[[15.6059,59.0247],[15.6263,59.0688],[15.6785,59.1129],[15.7717,59.12],[15.7698,59.15],[15.8366,59.1466],[15.8856,59.1708],[15.8929,59.2065],[16.0033,59.227],[16.0712,59.241],[16.1807,59.247],[16.2623,59.2636],[16.2985,59.2957],[16.2568,59.2983],[16.0657,59.2667],[15.9949,59.2945],[15.8544,59.2997],[15.9262,59.3427],[15.9976,59.3746],[16.0518,59.364],[16.1353,59.3571],[16.2594,59.3711],[16.2726,59.3957],[16.2241,59.415],[16.2308,59.4427],[16.4186,59.4493],[16.5169,59.4593],[16.6066,59.4499],[16.7041,59.4655],[16.7856,59.4677],[16.8388,59.4805],[16.9527,59.4529],[16.9692,59.488],[17.0151,59.4994],[17.0734,59.4773],[17.0422,59.4413],[17.0782,59.3771],[17.1534,59.3792],[17.1201,59.4396],[17.1474,59.4613],[17.2814,59.4428],[17.3244,59.3926],[17.2726,59.3599],[17.3035,59.3559],[17.3125,59.3244],[17.2573,59.3047],[17.2848,59.268],[17.2403,59.2422],[17.2542,59.1904],[17.3039,59.1416],[17.289,59.0501],[17.364,58.9922],[17.5216,58.9917],[17.5253,58.9678],[17.6001,58.9478],[17.619,58.9048],[17.5684,58.8781],[17.591,58.8502],[17.5574,58.8394],[17.4929,58.8678],[17.4748,58.8047],[17.501,58.7881],[17.45,58.7857],[17.4306,58.788],[17.4039,58.7914],[17.3884,58.7466],[17.3229,58.7545],[17.2815,58.7295],[17.18,58.7422],[17.1278,58.7423],[17.0795,58.7692],[17.0132,58.7557],[17.0828,58.7213],[17.1329,58.6966],[17.0887,58.6616],[17.0288,58.6839],[16.9697,58.688],[16.9262,58.6765],[17.0095,58.6635],[17.0106,58.6417],[16.9015,58.622],[16.7484,58.6325],[16.6878,58.68],[16.5453,58.7058],[16.3695,58.71],[16.2529,58.8291],[16.2266,58.8494],[16.167,58.8574],[16.0989,58.8972],[16.0538,58.9416],[15.9581,58.965],[15.8613,58.9986],[15.8431,59.025],[15.7938,59.0388],[15.7418,58.9803],[15.6323,59.0032],[15.6059,59.0247]]]}},{"type":"Feature","properties":{"code":"05"},"geometry":{"type":"Polygon","coordinates":[[[14.8947,58.0899],[14.7556,58.0738],[14.7481,58.1049],[14.6041,58.0925],[14.5376,58.1061],[14.5908,58.2051],[14.6141,58.2726],[14.6389,58.2948],[14.6258,58.3153],[14.6463,58.3498],[14.6598,58.384],[14.7726,58.4341],[14.7757,58.4665],[14.819,58.4768],[14.8622,58.4529],[14.9236,58.4677],[14.9615,58.5181],[15.0241,58.5382],[14.9896,58.5545],[14.9291,58.5614],[14.8592,58.5903],[14.9267,58.6337],[14.9396,58.6991],[15.0283,58.7278],[15.0498,58.7646],[15.0859,58.8043],[15.1344,58.836],[15.1869,58.8367],[15.2474,58.875],[15.3392,58.8472],[15.3873,58.8599],[15.4194,58.8309],[15.44,58.8768],[15.5235,58.8756],[15.5664,58.9112],[15.5307,58.9446],[15.6323,59.0032],[15.7418,58.9803],[15.7938,59.0388],[15.8431,59.025],[15.8613,58.9986],[15.9581,58.965],[16.0538,58.9416],[16.0989,58.8972],[16.167,58.8574],[16.2266,58.8494],[16.2529,58.8291],[16.3695,58.71],[16.5453,58.7058],[16.6878,58.68],[16.7484,58.6325],[16.6832,58.635],[16.5786,58.6456],[16.4445,58.6635],[16.3755,58.6643],[16.2736,58.6726],[16.2343,58.6534],[16.2328,58.6191],[16.2656,58.6116],[16.3457,58.6282],[16.3995,58.5939],[16.4213,58.6396],[16.572,58.6334],[16.712,58.5987],[16.8276,58.551],[16.9031,58.5095],[16.8283,58.4476],[16.7199,58.4278],[16.6125,58.4386],[16.5649,58.4412],[16.5965,58.4161],[16.6889,58.4009],[16.7146,58.3665],[16.8096,58.3619],[16.8837,58.3296],[16.8476,58.2831],[16.681,58.2661],[16.7661,58.2326],[16.8199,58.189],[16.769,58.1236],[16.6791,58.146],[16.6916,58.1144],[16.7726,58.0708],[16.7093,58.0498],[16.7488,58.0042],[16.6889,57.9823],[16.6125,57.9893],[16.5616,58.0996],[16.501,58.1163],[16.4692,58.084],[16.372,58.1514],[16.2937,58.1336],[16.2518,58.158],[16.179,58.1246],[16.1513,58.1083],[16.1755,58.0669],[16.1168,58.0634],[16.0921,58.0885],[15.9988,58.0878],[15.9844,58.0356],[16.0649,57.9726],[16.0197,57.9537],[16.0668,57.8648],[16.0186,57.8615],[15.9196,57.8134],[15.8666,57.833],[15.7947,57.8139],[15.7782,57.8456],[15.6709,57.8648],[15.5806,57.854],[15.591,57.8244],[15.5365,57.7963],[15.5166,57.7619],[15.4571,57.7672],[15.4291,57.7472],[15.4159,57.7009],[15.2844,57.7158],[15.1413,57.7076],[15.1003,57.7587],[15.0646,57.8258],[15.0764,57.8504],[15.0046,57.896],[14.9831,57.9345],[15.0143,57.9768],[15.0496,58.0001],[15.0256,58.0322],[14.982,58.1177],[14.9337,58.1311],[14.8947,58.0899]]]}},{"type":"Feature","properties":{"code":"06"},"geometry":{"type":"Polygon","coordinates":[[[15.0046,57.896],[15.0764,57.8504],[15.0646,57.8258],[15.1003,57.7587],[15.1413,57.7076],[15.2844,57.7158],[15.4159,57.7009],[15.4404,57.6742],[15.5127,57.6663],[15.6532,57.6072],[15.5782,57.5557],[15.6217,57.5349],[15.6357,57.507],[15.6054,57.4907],[15.6022,57.4457],[15.5467,57.4671],[15.4988,57.4465],[15.5038,57.3919],[15.4897,57.3729],[15.5068,57.3284],[15.4598,57.3113],[15.4653,57.2586],[15.4991,57.2457],[15.53,57.2],[15.3767,57.2331],[15.2177,57.2188],[15.1718,57.2377],[15.1119,57.2376],[15.1546,57.2026],[15.0853,57.2047],[15.0678,57.1889],[15.026,57.1737],[14.9849,57.167],[14.9668,57.1427],[14.9101,57.1405],[14.8934,57.1902],[14.8516,57.2141],[14.7877,57.2321],[14.7289,57.2316],[14.6723,57.213],[14.6082,57.2074],[14.5924,57.1938],[14.5533,57.1976],[14.544,57.1656],[14.4873,57.1577],[14.3875,57.155],[14.34,57.1544],[14.3398,57.0624],[14.3202,57.0453],[14.3304,57.0105],[14.3922,56.9694],[14.3397,56.8981],[14.292,56.8825],[14.2473,56.8956],[14.204,56.9483],[14.195,56.9903],[14.1348,57.042],[14.1133,57.0322],[14.0743,57.054],[14.0199,57.0638],[13.9317,57.05],[13.9209,57.0253],[13.862,57.0082],[13.8187,57.0644],[13.7468,57.0683],[13.7047,57.0534],[13.685,56.9864],[13.6202,56.9995],[13.5924,57.0314],[13.6083,57.0686],[13.5268,57.0957],[13.4965,57.0916],[13.4849,57.1228],[13.4597,57.1095],[13.3586,57.1174],[13.2695,57.096],[13.2282,57.1068],[13.2203,57.0764],[13.1312,57.0315],[13.0902,57.0956],[13.086,57.1271],[13.1333,57.1491],[13.1805,57.1844],[13.1979,57.2342],[13.2277,57.2564],[13.2727,57.2473],[13.2935,57.3035],[13.3692,57.3135],[13.3854,57.3326],[13.4297,57.3397],[13.4301,57.3632],[13.4861,57.3806],[13.5083,57.4157],[13.6211,57.5153],[13.6674,57.533],[13.6821,57.5612],[13.6729,57.6067],[13.6764,57.6282],[13.722,57.6406],[13.7368,57.6688],[13.7075,57.7074],[13.7109,57.7349],[13.7427,57.7641],[13.7414,57.8435],[13.7492,57.8829],[13.7089,57.9376],[13.7085,57.9821],[13.7578,58.0141],[13.7763,58.05],[13.7985,58.0538],[13.8468,58.039],[13.8758,58.0503],[13.951,58.0342],[13.9602,58.0094],[14.0686,58.0287],[14.0718,58.0466],[14.1142,58.0752],[14.1132,58.1517],[14.213,58.1457],[14.194,58.066],[14.1578,57.9974],[14.1169,57.9578],[14.1141,57.8858],[14.142,57.8718],[14.1583,57.8313],[14.1509,57.7902],[14.1794,57.7798],[14.2087,57.7928],[14.2597,57.7957],[14.2668,57.8531],[14.2857,57.9009],[14.3522,57.968],[14.4501,58.0028],[14.4683,58.0452],[14.5376,58.1061],[14.6041,58.0925],[14.7481,58.1049],[14.7556,58.0738],[14.8947,58.0899],[14.9337,58.1311],[14.982,58.1177],[15.0256,58.0322],[15.0496,58.0001],[15.0143,57.9768],[14.9831,57.9345],[15.0046,57.896]]]}},{"type":"Feature","properties":{"code":"07"},"geometry":{"type":"Polygon","coordinates":[[[15.0853,57.2047],[15.1546,57.2026],[15.1119,57.2376],[15.1718,57.2377],[15.2177,57.2188],[15.3767,57.2331],[15.53,57.2],[15.5557,57.1844],[15.5357,57.153],[15.6271,57.1312],[15.664,57.0873],[15.7365,57.0708],[15.7988,57.0229],[15.8414,56.9767],[15.8093,56.9209],[15.6927,56.9155],[15.6522,56.9108],[15.554,56.9294],[15.5119,56.9175],[15.51,56.8984],[15.5517,56.8361],[15.5407,56.8054],[15.4372,56.7972],[15.3578,56.7785],[15.42,56.7151],[15.4078,56.6724],[15.4188,56.6464],[15.3622,56.6046],[15.3712,56.5589],[15.3421,56.5443],[15.3357,56.4868],[15.2959,56.4621],[15.2513,56.4828],[15.2023,56.4658],[15.1937,56.4392],[15.1351,56.439],[15.1266,56.4612],[15.019,56.4602],[14.9659,56.4379],[14.9206,56.3833],[14.88,56.3633],[14.8025,56.3821],[14.71,56.3908],[14.6686,56.4009],[14.5969,56.4518],[14.5244,56.4581],[14.4147,56.4807],[14.253,56.5035],[14.2379,56.4917],[14.1334,56.5078],[14.1019,56.5328],[14.0626,56.5312],[14.0548,56.5045],[14.0161,56.4685],[13.9282,56.4673],[13.8699,56.4485],[13.7888,56.4488],[13.7051,56.4279],[13.577,56.4093],[13.4972,56.4099],[13.4572,56.431],[13.4714,56.4526],[13.4484,56.4716],[13.4744,56.5137],[13.444,56.5692],[13.4172,56.5848],[13.4021,56.6137],[13.3737,56.6625],[13.3262,56.6934],[13.3221,56.7729],[13.2963,56.8473],[13.3404,56.8712],[13.3716,56.8609],[13.4694,56.8782],[13.4873,56.8666],[13.5336,56.8898],[13.6126,56.8917],[13.6221,56.9093],[13.6603,56.9021],[13.6931,56.9619],[13.685,56.9864],[13.7047,57.0534],[13.7468,57.0683],[13.8187,57.0644],[13.862,57.0082],[13.9209,57.0253],[13.9317,57.05],[14.0199,57.0638],[14.0743,57.054],[14.1133,57.0322],[14.1348,57.042],[14.195,56.9903],[14.204,56.9483],[14.2473,56.8956],[14.292,56.8825],[14.3397,56.8981],[14.3922,56.9694],[14.3304,57.0105],[14.3202,57.0453],[14.3398,57.0624],[14.34,57.1544],[14.3875,57.155],[14.4873,57.1577],[14.544,57.1656],[14.5533,57.1976],[14.5924,57.1938],[14.6082,57.2074],[14.6723,57.213],[14.7289,57.2316],[14.7877,57.2321],[14.8516,57.2141],[14.8934,57.1902],[14.9101,57.1405],[14.9668,57.1427],[14.9849,57.167],[15.026,57.1737],[15.0678,57.1889],[15.0853,57.2047]]]}},{"type":"Feature","properties":{"code":"08"},"geometry":{"type":"MultiPolygon","coordinates":[[[[15.664,57.0873],[15.6271,57.1312],[15.5357,57.153],[15.5557,57.1844],[15.53,57.2],[15.4991,57.2457],[15.4653,57.2586],[15.4598,57.3113],[15.5068,57.3284],[15.4897,57.3729],[15.5038,57.3919],[15.4988,57.4465],[15.5467,57.4671],[15.6022,57.4457],[15.6054,57.4907],[15.6357,57.507],[15.6217,57.5349],[15.5782,57.5557],[15.6532,57.6072],[15.5127,57.6663],[15.4404,57.6742],[15.4159,57.7009],[15.4291,57.7472],[15.4571,57.7672],[15.5166,57.7619],[15.5365,57.7963],[15.591,57.8244],[15.5806,57.854],[15.6709,57.8648],[15.7782,57.8456],[15.7947,57.8139],[15.8666,57.833],[15.9196,57.8134],[16.0186,57.8615],[16.0668,57.8648],[16.0197,57.9537],[16.0649,57.9726],[15.9844,58.0356],[15.9988,58.0878],[16.0921,58.0885],[16.1168,58.0634],[16.1755,58.0669],[16.1513,58.1083],[16.179,58.1246],[16.2518,58.158],[16.2937,58.1336],[16.372,58.1514],[16.4692,58.084],[16.501,58.1163],[16.5616,58.0996],[16.6125,57.9893],[16.6889,57.9823],[16.7488,58.0042],[16.7656,57.9227],[16.744,57.8643],[16.6861,57.89],[16.6003,57.8995],[16.5333,57.8479],[16.6181,57.7805],[16.6925,57.7537],[16.6938,57.7047],[16.6354,57.6869],[16.6054,57.6473],[16.6393,57.6214],[16.7067,57.6349],[16.7053,57.6024],[16.6706,57.5849],[16.5789,57.5809],[16.6684,57.5216],[16.6897,57.4857],[16.6549,57.4264],[16.6183,57.3728],[16.5479,57.3722],[16.5579,57.3171],[16.4804,57.2862],[16.4987,57.2378],[16.4626,57.1986],[16.4978,57.1328],[16.581,57.1108],[16.4907,57.0391],[16.4547,56.9854],[16.4608,56.9415],[16.4359,56.8876],[16.4067,56.7966],[16.4425,56.8087],[16.4693,56.7833],[16.4384,56.7637],[16.3969,56.7828],[16.3536,56.6825],[16.2793,56.673],[16.2355,56.6252],[16.2221,56.5953],[16.2243,56.5481],[16.1865,56.5398],[16.1631,56.4942],[16.1196,56.4706],[16.0839,56.4035],[16.0521,56.3241],[15.9876,56.3067],[15.9459,56.3239],[15.8512,56.321],[15.7942,56.3427],[15.7308,56.4101],[15.6774,56.4189],[15.6557,56.4443],[15.6395,56.4701],[15.5905,56.4695],[15.5644,56.5001],[15.4926,56.5153],[15.4813,56.4823],[15.398,56.4994],[15.3357,56.4868],[15.3421,56.5443],[15.3712,56.5589],[15.3622,56.6046],[15.4188,56.6464],[15.4078,56.6724],[15.42,56.7151],[15.3578,56.7785],[15.4372,56.7972],[15.5407,56.8054],[15.5517,56.8361],[15.51,56.8984],[15.5119,56.9175],[15.554,56.9294],[15.6522,56.9108],[15.6927,56.9155],[15.8093,56.9209],[15.8414,56.9767],[15.7988,57.0229],[15.7365,57.0708],[15.664,57.0873]]],[[[16.6838,56.6234],[16.6915,56.6011],[16.6387,56.5722],[16.6308,56.5256],[16.5998,56.4644],[16.5573,56.4093],[16.5721,56.3757],[16.5067,56.2915],[16.4738,56.234],[16.408,56.2023],[16.4169,56.2542],[16.3983,56.2718],[16.406,56.4307],[16.3844,56.4358],[16.3788,56.5376],[16.3883,56.5787],[16.4391,56.6277],[16.4582,56.6808],[16.5209,56.7652],[16.5743,56.8231],[16.6084,56.8824],[16.6492,56.9013],[16.7085,56.9008],[16.7401,56.962],[16.7719,57.0105],[16.8134,57.0311],[16.8436,57.0725],[16.8901,57.1254],[16.9161,57.1761],[16.9046,57.2095],[16.9446,57.223],[16.956,57.2548],[16.9654,57.3049],[17.0199,57.3482],[17.0615,57.3669],[17.0841,57.3508],[17.1131,57.3595],[17.1297,57.3202],[17.0792,57.3058],[17.0536,57.2714],[17.0678,57.2486],[17.0658,57.1889],[17.0388,57.1745],[16.9875,57.1166],[16.9504,57.0485],[16.9108,57.0495],[16.9358,57.0169],[16.8794,56.9902],[16.8755,56.9215],[16.8535,56.8995],[16.8557,56.8686],[16.827,56.8325],[16.779,56.8251],[16.7025,56.6782],[16.6838,56.6234]]]]}},{"type":"Feature","properties":{"code":"09"},"geometry":{"type":"Polygon","coordinates":[[[18.5377,57.8459],[18.5841,57.8529],[18.607,57.8946],[18.6539,57.9143],[18.7064,57.9299],[18.7702,57.8499],[18.8182,57.9168],[18.8592,57.9388],[18.9997,57.9194],[19.0546,57.9419],[19.0743,57.982],[19.1499,58.0046],[19.2334,57.9881],[19.2889,57.9904],[19.3058,57.9689],[19.2762,57.9515],[19.2015,57.9527],[19.1399,57.9417],[19.1149,57.9275],[19.134,57.9021],[19.0939,57.862],[19.0297,57.8421],[18.9954,57.8305],[18.9975,57.7939],[18.9329,57.7941],[18.9234,57.7312],[18.8486,57.7304],[18.7974,57.7512],[18.7842,57.6977],[18.7486,57.6261],[18.7821,57.6142],[18.7669,57.5536],[18.7341,57.5237],[18.7764,57.4745],[18.8392,57.4491],[18.9004,57.4401],[18.867,57.3975],[18.7891,57.3843],[18.7259,57.3752],[18.6547,57.3176],[18.6554,57.2866],[18.6941,57.2705],[18.6568,57.2355],[18.5435,57.2142],[18.5274,57.1938],[18.3838,57.1368],[18.424,57.1261],[18.3185,57.084],[18.3199,57.0203],[18.3725,57.0068],[18.3004,56.9528],[18.1896,56.9129],[18.1244,56.9164],[18.1807,56.9863],[18.1924,57.0272],[18.2585,57.049],[18.2834,57.0778],[18.2738,57.1023],[18.2094,57.0749],[18.1882,57.082],[18.205,57.1407],[18.1602,57.1589],[18.1312,57.1739],[18.1367,57.2516],[18.0827,57.2615],[18.0972,57.3003],[18.1499,57.3324],[18.165,57.3966],[18.129,57.4231],[18.1105,57.4755],[18.0909,57.5243],[18.1088,57.5628],[18.1911,57.6143],[18.2453,57.6263],[18.3143,57.677],[18.3903,57.7508],[18.426,57.8133],[18.4804,57.8361],[18.5377,57.8459]]]}},{"type":"Feature","properties":{"code":"10"},"geometry":{"type":"Polygon","coordinates":[[[14.5496,56.2243],[14.4936,56.2183],[14.4408,56.2301],[14.4326,56.2739],[14.4109,56.3067],[14.3896,56.3412],[14.4118,56.3924],[14.4687,56.402],[14.5244,56.4581],[14.5969,56.4518],[14.6686,56.4009],[14.71,56.3908],[14.8025,56.3821],[14.88,56.3633],[14.9206,56.3833],[14.9659,56.4379],[15.019,56.4602],[15.1266,56.4612],[15.1351,56.439],[15.1937,56.4392],[15.2023,56.4658],[15.2513,56.4828],[15.2959,56.4621],[15.3357,56.4868],[15.398,56.4994],[15.4813,56.4823],[15.4926,56.5153],[15.5644,56.5001],[15.5905,56.4695],[15.6395,56.4701],[15.6557,56.4443],[15.6774,56.4189],[15.7308,56.4101],[15.7942,56.3427],[15.8512,56.321],[15.9459,56.3239],[15.9876,56.3067],[16.0521,56.3241],[16.0109,56.2363],[15.9552,56.1748],[15.9127,56.1577],[15.8514,56.0838],[15.7876,56.1169],[15.711,56.091],[15.6644,56.0994],[15.7265,56.1335],[15.7426,56.1632],[15.693,56.1881],[15.5938,56.178],[15.561,56.1909],[15.4957,56.1775],[15.4567,56.1558],[15.4109,56.1839],[15.3862,56.1583],[15.3173,56.1371],[15.2938,56.1801],[15.2533,56.1717],[15.1643,56.1625],[15.0969,56.1647],[15.0606,56.1879],[15.0225,56.1636],[14.9512,56.1623],[14.8505,56.1589],[14.7751,56.1523],[14.7332,56.1529],[14.6796,56.1594],[14.6847,56.1176],[14.7214,56.0722],[14.7822,56.0363],[14.7271,55.9996],[14.6632,56.0014],[14.6082,56.017],[14.546,56.0457],[14.5544,56.0741],[14.5949,56.0846],[14.572,56.1996],[14.5496,56.2243]]]}},{"type":"Feature","properties":{"code":"12"},"geometry":{"type":"Polygon","coordinates":[[[13.0532,55.6467],[13.0517,55.6539],[13.0656,55.6747],[13.0645,55.6826],[13.0512,55.7026],[13.0342,55.7082],[12.9979,55.7248],[12.9731,55.7239],[12.9561,55.7269],[12.9672,55.7387],[12.9548,55.7523],[12.9268,55.7446],[12.9097,55.7587],[12.9245,55.77],[12.9367,55.7754],[12.9265,55.8263],[12.9048,55.8632],[12.8353,55.8714],[12.7765,55.9614],[12.7559,56.0105],[12.7134,56.0518],[12.6632,56.0844],[12.6195,56.1185],[12.5858,56.139],[12.5731,56.1563],[12.5523,56.2183],[12.5368,56.2477],[12.5022,56.2796],[12.4594,56.2974],[12.505,56.3011],[12.5978,56.2706],[12.6783,56.2459],[12.7045,56.2251],[12.7336,56.2258],[12.7683,56.2199],[12.7904,56.2172],[12.828,56.2328],[12.8483,56.2627],[12.8204,56.2944],[12.7693,56.3222],[12.745,56.3568],[12.6932,56.3805],[12.6392,56.3879],[12.6316,56.4279],[12.6801,56.4512],[12.7271,56.4638],[12.7963,56.4485],[12.8457,56.4303],[12.9038,56.4442],[12.9708,56.4217],[12.9469,56.3674],[12.9913,56.3614],[13.1516,56.3511],[13.2021,56.3285],[13.3027,56.3879],[13.3781,56.4152],[13.4199,56.4134],[13.4572,56.431],[13.4972,56.4099],[13.577,56.4093],[13.7051,56.4279],[13.7888,56.4488],[13.8699,56.4485],[13.9282,56.4673],[14.0161,56.4685],[14.0548,56.5045],[14.0626,56.5312],[14.1019,56.5328],[14.1334,56.5078],[14.2379,56.4917],[14.253,56.5035],[14.4147,56.4807],[14.5244,56.4581],[14.4687,56.402],[14.4118,56.3924],[14.3896,56.3412],[14.4109,56.3067],[14.4326,56.2739],[14.4408,56.2301],[14.4936,56.2183],[14.5496,56.2243],[14.572,56.1996],[14.5949,56.0846],[14.5544,56.0741],[14.546,56.0457],[14.4681,56.03],[14.4296,55.9887],[14.3543,55.962],[14.3239,55.9167],[14.2801,55.9045],[14.2093,55.8287],[14.1989,55.7589],[14.2178,55.6929],[14.2778,55.6717],[14.2963,55.6129],[14.3489,55.5867],[14.3634,55.5426],[14.3313,55.5045],[14.2602,55.4596],[14.2097,55.405],[14.1906,55.3856],[14.1032,55.3919],[14.0615,55.3886],[13.9581,55.4318],[13.9153,55.4411],[13.8505,55.4317],[13.7373,55.4354],[13.7005,55.4228],[13.649,55.4211],[13.5939,55.3812],[13.4849,55.3821],[13.4519,55.3748],[13.4203,55.3598],[13.3803,55.3568],[13.3357,55.34],[13.3199,55.3505],[13.2855,55.347],[13.2622,55.3526],[13.212,55.367],[13.1188,55.3793],[13.0826,55.3742],[13.0603,55.3739],[13.011,55.3916],[12.9743,55.4048],[12.9446,55.4012],[12.9297,55.3958],[12.9252,55.3883],[12.9084,55.3881],[12.8943,55.3964],[12.8748,55.3988],[12.8163,55.3859],[12.8638,55.4474],[12.8704,55.4406],[12.8801,55.419],[12.9109,55.4136],[12.9332,55.4117],[12.9452,55.4235],[12.9579,55.4464],[12.9604,55.4702],[12.9509,55.4871],[12.9371,55.5049],[12.9157,55.5311],[12.9088,55.5559],[12.9076,55.5744],[12.9262,55.5863],[12.9765,55.6049],[13.0062,55.6174],[13.0464,55.6242],[13.0546,55.6361],[13.0532,55.6467]]]}},{"type":"Feature","properties":{"code":"13"},"geometry":{"type":"Polygon","coordinates":[[[13.6931,56.9619],[13.6603,56.9021],[13.6221,56.9093],[13.6126,56.8917],[13.5336,56.8898],[13.4873,56.8666],[13.4694,56.8782],[13.3716,56.8609],[13.3404,56.8712],[13.2963,56.8473],[13.3221,56.7729],[13.3262,56.6934],[13.3737,56.6625],[13.4021,56.6137],[13.4172,56.5848],[13.444,56.5692],[13.4744,56.5137],[13.4484,56.4716],[13.4714,56.4526],[13.4572,56.431],[13.4199,56.4134],[13.3781,56.4152],[13.3027,56.3879],[13.2021,56.3285],[13.1516,56.3511],[12.9913,56.3614],[12.9469,56.3674],[12.9708,56.4217],[12.9038,56.4442],[12.9358,56.4718],[12.953,56.5017],[12.9544,56.5497],[12.9401,56.5941],[12.9081,56.6441],[12.8488,56.6627],[12.7937,56.6414],[12.7384,56.6417],[12.659,56.7294],[12.6224,56.7812],[12.6235,56.8298],[12.5649,56.8572],[12.4872,56.8889],[12.4103,56.9025],[12.3587,56.9349],[12.3726,56.9668],[12.3695,56.9936],[12.3409,57.0281],[12.2933,57.0442],[12.2617,57.0831],[12.2488,57.1395],[12.1977,57.1827],[12.1328,57.2227],[12.1342,57.2623],[12.1825,57.2769],[12.1747,57.3038],[12.1637,57.3376],[12.1492,57.3467],[12.1146,57.3412],[12.1009,57.3509],[12.1228,57.387],[12.1222,57.4347],[12.1113,57.4558],[12.0922,57.4615],[12.0727,57.4501],[12.0595,57.426],[12.0399,57.3766],[12.0287,57.3611],[12.0117,57.3557],[11.9877,57.3613],[11.9703,57.3788],[11.9333,57.4262],[11.9268,57.4421],[11.9337,57.4606],[11.958,57.5016],[11.9524,57.5277],[11.9474,57.5611],[12.0133,57.5628],[12.0385,57.5496],[12.1383,57.5623],[12.2056,57.5764],[12.284,57.6042],[12.3429,57.5677],[12.3268,57.5291],[12.3439,57.5126],[12.3546,57.492],[12.3449,57.4692],[12.3557,57.4578],[12.3816,57.4528],[12.3972,57.4431],[12.4117,57.4109],[12.3957,57.342],[12.4308,57.3206],[12.4279,57.272],[12.5055,57.28],[12.5276,57.3225],[12.6529,57.3377],[12.7055,57.3321],[12.7987,57.2891],[12.8583,57.2676],[12.9311,57.2666],[12.9533,57.2369],[12.9322,57.2287],[12.9412,57.1761],[13.0121,57.1859],[13.0573,57.1787],[13.0476,57.1574],[13.0728,57.1492],[13.1009,57.1607],[13.1333,57.1491],[13.086,57.1271],[13.0902,57.0956],[13.1312,57.0315],[13.2203,57.0764],[13.2282,57.1068],[13.2695,57.096],[13.3586,57.1174],[13.4597,57.1095],[13.4849,57.1228],[13.4965,57.0916],[13.5268,57.0957],[13.6083,57.0686],[13.5924,57.0314],[13.6202,56.9995],[13.685,56.9864],[13.6931,56.9619]]]}},{"type":"Feature","properties":{"code":"14"},"geometry":{"type":"MultiPolygon","coordinates":[[[[11.7061,57.7586],[11.7208,57.7417],[11.7081,57.729],[11.6978,57.7102],[11.699,57.6928],[11.6946,57.6815],[11.684,57.6773],[11.633,57.6961],[11.6311,57.7051],[11.655,57.7045],[11.6574,57.7143],[11.6504,57.7182],[11.65,57.7279],[11.6676,57.7272],[11.6679,57.7453],[11.6869,57.7539],[11.7061,57.7586]]],[[[11.6228,57.7939],[11.6591,57.7709],[11.6183,57.7401],[11.6015,57.7434],[11.6228,57.7939]]],[[[11.831,58.0017],[11.8416,58.0261],[11.8419,58.048],[11.8341,58.0701],[11.8291,58.092],[11.8658,58.1195],[11.8806,58.1371],[11.8837,58.1624],[11.8765,58.1856],[11.8957,58.1894],[11.9191,58.2043],[11.92,58.2206],[11.8898,58.2199],[11.887,58.2417],[11.866,58.2626],[11.8334,58.2893],[11.8395,58.3021],[11.8789,58.3269],[11.8169,58.3245],[11.7714,58.3317],[11.7337,58.3285],[11.7537,58.317],[11.7442,58.3068],[11.705,58.3066],[11.6841,58.283],[11.6584,58.2675],[11.6343,58.2574],[11.6035,58.2535],[11.5898,58.2339],[11.5657,58.2169],[11.5306,58.2077],[11.4821,58.2009],[11.4392,58.1987],[11.4316,58.2047],[11.4558,58.2291],[11.4711,58.2419],[11.4999,58.2463],[11.5253,58.2565],[11.5491,58.272],[11.5635,58.2847],[11.5597,58.3115],[11.5369,58.3017],[11.513,58.2811],[11.4936,58.2696],[11.4532,58.2655],[11.4483,58.2732],[11.4646,58.2829],[11.4714,58.3006],[11.4472,58.3028],[11.4292,58.3086],[11.4454,58.3476],[11.4147,58.3426],[11.4138,58.3739],[11.3845,58.3579],[11.3597,58.3619],[11.3495,58.3712],[11.3348,58.3726],[11.3262,58.3608],[11.2936,58.3492],[11.2589,58.3482],[11.2534,58.3579],[11.2793,58.3755],[11.2694,58.401],[11.266,58.4187],[11.273,58.4322],[11.2921,58.4354],[11.2999,58.421],[11.3122,58.4203],[11.3327,58.4276],[11.3371,58.4399],[11.3303,58.4533],[11.327,58.4677],[11.2711,58.5627],[11.3096,58.5956],[11.2551,58.6832],[11.1776,58.7473],[11.1795,58.8347],[11.1719,58.858],[11.1316,58.9094],[11.1317,58.9244],[11.1363,58.9278],[11.1603,58.924],[11.1733,58.9262],[11.171,58.9357],[11.1419,58.9554],[11.1342,58.9674],[11.1314,59.0118],[11.2114,59.0897],[11.2527,59.0952],[11.2785,59.1027],[11.3157,59.1165],[11.3594,59.1113],[11.4549,59.0181],[11.445,58.9233],[11.4521,58.8984],[11.5049,58.8811],[11.6499,58.9188],[11.6763,58.9608],[11.6734,58.9949],[11.7064,59.0455],[11.7763,59.1065],[11.7547,59.125],[11.7586,59.2088],[11.8203,59.2355],[11.9483,59.2624],[12.0845,59.1971],[12.062,59.2716],[12.231,59.2736],[12.2676,59.2021],[12.3464,59.187],[12.4215,59.1971],[12.4644,59.1449],[12.5744,59.1343],[12.6389,59.1951],[12.7102,59.1782],[12.7663,59.1528],[12.7726,59.0704],[12.6885,58.9868],[12.6528,58.9556],[12.6385,58.8787],[12.5586,58.8094],[12.4929,58.7505],[12.4989,58.6927],[12.5469,58.6658],[12.6496,58.6622],[12.6713,58.6452],[12.6233,58.6217],[12.5663,58.5823],[12.526,58.5381],[12.4654,58.4958],[12.3864,58.4678],[12.3292,58.4229],[12.3286,58.3923],[12.4199,58.3857],[12.4561,58.4007],[12.5134,58.3951],[12.5947,58.4643],[12.6526,58.4622],[12.634,58.4021],[12.7047,58.419],[12.7009,58.4407],[12.7727,58.4885],[12.891,58.5004],[12.9503,58.554],[12.9462,58.5722],[13.0102,58.6094],[13.1136,58.7009],[13.1816,58.6946],[13.2236,58.6767],[13.1896,58.6132],[13.1371,58.518],[13.1761,58.5038],[13.2552,58.4982],[13.3016,58.5168],[13.3193,58.5629],[13.3446,58.6142],[13.4328,58.6484],[13.5287,58.666],[13.6129,58.6949],[13.7028,58.6964],[13.7701,58.7061],[13.8605,58.749],[13.8889,58.773],[13.8527,58.7836],[13.7809,58.7688],[13.7366,58.7527],[13.7256,58.7892],[13.6649,58.8189],[13.6845,58.8523],[13.8552,58.8376],[13.9074,58.8191],[13.965,58.8507],[14.0048,58.8982],[14.0219,58.9546],[14.0027,59.0024],[14.1169,59.041],[14.2102,59.0422],[14.268,58.9997],[14.3084,58.893],[14.3704,58.8701],[14.3268,58.8341],[14.4024,58.7992],[14.4576,58.7972],[14.4681,58.7244],[14.5376,58.7245],[14.5463,58.6969],[14.5964,58.7052],[14.6251,58.7454],[14.6843,58.746],[14.7215,58.7018],[14.6713,58.6687],[14.5878,58.6477],[14.5419,58.6247],[14.5404,58.5815],[14.5328,58.5421],[14.4904,58.4829],[14.4502,58.4704],[14.3977,58.4044],[14.3515,58.3471],[14.2812,58.3],[14.2541,58.2273],[14.2192,58.1857],[14.213,58.1457],[14.1132,58.1517],[14.1142,58.0752],[14.0718,58.0466],[14.0686,58.0287],[13.9602,58.0094],[13.951,58.0342],[13.8758,58.0503],[13.8468,58.039],[13.7985,58.0538],[13.7763,58.05],[13.7578,58.0141],[13.7085,57.9821],[13.7089,57.9376],[13.7492,57.8829],[13.7414,57.8435],[13.7427,57.7641],[13.7109,57.7349],[13.7075,57.7074],[13.7368,57.6688],[13.722,57.6406],[13.6764,57.6282],[13.6729,57.6067],[13.6821,57.5612],[13.6674,57.533],[13.6211,57.5153],[13.5083,57.4157],[13.4861,57.3806],[13.4301,57.3632],[13.4297,57.3397],[13.3854,57.3326],[13.3692,57.3135],[13.2935,57.3035],[13.2727,57.2473],[13.2277,57.2564],[13.1979,57.2342],[13.1805,57.1844],[13.1333,57.1491],[13.1009,57.1607],[13.0728,57.1492],[13.0476,57.1574],[13.0573,57.1787],[13.0121,57.1859],[12.9412,57.1761],[12.9322,57.2287],[12.9533,57.2369],[12.9311,57.2666],[12.8583,57.2676],[12.7987,57.2891],[12.7055,57.3321],[12.6529,57.3377],[12.5276,57.3225],[12.5055,57.28],[12.4279,57.272],[12.4308,57.3206],[12.3957,57.342],[12.4117,57.4109],[12.3972,57.4431],[12.3816,57.4528],[12.3557,57.4578],[12.3449,57.4692],[12.3546,57.492],[12.3439,57.5126],[12.3268,57.5291],[12.3429,57.5677],[12.284,57.6042],[12.2056,57.5764],[12.1383,57.5623],[12.0385,57.5496],[12.0133,57.5628],[11.9474,57.5611],[11.9515,57.585],[11.952,57.6284],[11.9422,57.6377],[11.9261,57.6221],[11.9133,57.6222],[11.8822,57.6661],[11.8804,57.6735],[11.8874,57.6818],[11.9579,57.7058],[11.9382,57.7051],[11.9084,57.6987],[11.894,57.704],[11.8493,57.6981],[11.8309,57.7134],[11.8149,57.7161],[11.8014,57.7129],[11.7969,57.6998],[11.7727,57.6962],[11.7557,57.6988],[11.7317,57.7199],[11.7315,57.7287],[11.7489,57.7436],[11.7834,57.7529],[11.8191,57.7602],[11.8282,57.792],[11.7786,57.7887],[11.7664,57.7919],[11.7601,57.8131],[11.7514,57.8209],[11.7294,57.8318],[11.7166,57.841],[11.722,57.8546],[11.7411,57.8698],[11.7525,57.8831],[11.7604,57.9021],[11.7904,57.9365],[11.7763,57.9478],[11.7758,57.9611],[11.7817,57.9712],[11.831,58.0017]],[[12.6683,57.8535],[12.7641,57.8574],[12.8055,57.8605],[12.6683,57.8535]]],[[[11.7857,58.1057],[11.8028,58.1012],[11.8033,58.0898],[11.7914,58.0805],[11.7802,58.0784],[11.7857,58.1057]]],[[[11.7023,57.9707],[11.6638,57.9601],[11.6526,57.9543],[11.635,57.9337],[11.6025,57.9317],[11.5957,57.9397],[11.5944,57.9595],[11.5678,57.9665],[11.5612,57.9721],[11.5576,57.9864],[11.5605,57.9962],[11.5987,58.0004],[11.597,58.0159],[11.5565,58.0137],[11.5394,58.0152],[11.5305,58.0229],[11.5295,58.032],[11.5407,58.0469],[11.5676,58.0555],[11.6238,58.0512],[11.6433,58.0547],[11.6545,58.0615],[11.6724,58.0885],[11.6808,58.0931],[11.6989,58.0917],[11.7207,58.0839],[11.7178,58.0742],[11.7061,58.0625],[11.7245,58.0583],[11.7541,58.0697],[11.7722,58.0591],[11.776,58.0421],[11.7762,58.0178],[11.7684,58.0021],[11.7534,57.9946],[11.7404,57.9946],[11.7342,58.0062],[11.7151,58.0081],[11.7082,57.9896],[11.7006,57.9776],[11.7023,57.9707]]],[[[11.7708,58.1128],[11.7509,58.1055],[11.7332,58.0897],[11.7101,58.0924],[11.7125,58.1053],[11.6959,58.113],[11.6658,58.1234],[11.6424,58.1295],[11.6095,58.1179],[11.5969,58.106],[11.5907,58.0905],[11.5755,58.0751],[11.5546,58.0627],[11.5359,58.0598],[11.52,58.0635],[11.5079,58.0712],[11.4895,58.0607],[11.4737,58.0686],[11.4832,58.0734],[11.4982,58.0864],[11.5027,58.0996],[11.4873,58.1125],[11.4445,58.1356],[11.4395,58.147],[11.4171,58.1482],[11.4043,58.1366],[11.3916,58.1324],[11.4083,58.1577],[11.4356,58.1782],[11.4619,58.1746],[11.4867,58.1736],[11.5211,58.1887],[11.551,58.195],[11.5956,58.2118],[11.6365,58.2393],[11.6583,58.2427],[11.6964,58.2411],[11.7015,58.253],[11.6969,58.2677],[11.7014,58.2823],[11.7331,58.2929],[11.7529,58.2951],[11.7903,58.2935],[11.7913,58.2751],[11.8007,58.2579],[11.8396,58.2426],[11.8587,58.2303],[11.867,58.2172],[11.8563,58.1999],[11.8495,58.1832],[11.856,58.163],[11.8533,58.1369],[11.8452,58.1199],[11.7708,58.1128]]],[[[11.766,58.1012],[11.7723,58.0828],[11.7515,58.0836],[11.766,58.1012]]],[[[11.7137,57.903],[11.7012,57.8816],[11.6294,57.8601],[11.5984,57.8717],[11.6311,57.8977],[11.6701,57.9035],[11.7137,57.903]]]]}},{"type":"Feature","properties":{"code":"17"},"geometry":{"type":"Polygon","coordinates":[[[11.9325,59.7851],[11.8648,59.8465],[11.9717,59.9028],[12.0558,59.8878],[12.1609,59.8972],[12.2231,59.935],[12.3493,59.9671],[12.3806,60.0129],[12.4476,60.039],[12.5062,60.1332],[12.5412,60.1861],[12.499,60.3262],[12.6095,60.4145],[12.603,60.5229],[12.5082,60.6034],[12.5113,60.652],[12.392,60.7458],[12.3359,60.8484],[12.3419,60.8933],[12.2328,61.019],[12.4861,61.0528],[12.6153,61.0469],[12.6764,61.0581],[12.7024,61.008],[13.1755,60.7661],[13.205,60.6983],[13.2602,60.698],[13.3053,60.6368],[13.4373,60.5271],[13.4969,60.4471],[13.5679,60.4214],[13.6925,60.4176],[13.8481,60.2684],[13.9679,60.1886],[13.9495,60.2668],[14.0188,60.2683],[14.0387,60.2385],[14.1378,60.2443],[14.1866,60.1759],[14.2154,60.0987],[14.4385,60.0257],[14.4629,59.9788],[14.3431,59.9555],[14.3758,59.9197],[14.4311,59.908],[14.4161,59.831],[14.4376,59.7758],[14.3841,59.7585],[14.4385,59.7071],[14.421,59.6718],[14.4601,59.5916],[14.4635,59.5324],[14.4173,59.5419],[14.398,59.5157],[14.463,59.4475],[14.3754,59.3975],[14.3188,59.323],[14.3193,59.3127],[14.2841,59.232],[14.2995,59.1825],[14.2808,59.1581],[14.3293,59.098],[14.268,58.9997],[14.2102,59.0422],[14.1169,59.041],[14.1479,59.0849],[14.0958,59.1072],[14.0239,59.078],[13.9818,59.0384],[13.948,59.0453],[13.947,59.0995],[14.0687,59.2295],[14.0324,59.3214],[13.947,59.318],[13.887,59.3382],[13.8144,59.3672],[13.7453,59.3359],[13.6925,59.3779],[13.6051,59.3558],[13.5784,59.3088],[13.505,59.2703],[13.4376,59.3398],[13.3809,59.3746],[13.2841,59.3659],[13.2558,59.3435],[13.2829,59.3136],[13.2222,59.3088],[13.1832,59.3301],[13.1491,59.3531],[13.1541,59.279],[13.1004,59.2504],[13.166,59.1739],[13.224,59.0724],[13.2596,58.9194],[13.2144,58.8978],[13.1074,58.9272],[13.0769,59.0258],[13.0245,59.026],[12.9953,59.065],[12.9065,59.0557],[12.8983,59.0957],[12.7726,59.0704],[12.7663,59.1528],[12.7102,59.1782],[12.6389,59.1951],[12.5744,59.1343],[12.4644,59.1449],[12.4215,59.1971],[12.3464,59.187],[12.2676,59.2021],[12.231,59.2736],[12.062,59.2716],[12.0845,59.1971],[11.9483,59.2624],[11.8203,59.2355],[11.817,59.3436],[11.7796,59.3861],[11.7454,59.4897],[11.6963,59.5882],[11.7446,59.6391],[11.8565,59.654],[11.8855,59.6892],[11.9421,59.7254],[11.9325,59.7851]]]}},{"type":"Feature","properties":{"code":"18"},"geometry":{"type":"Polygon","coordinates":[[[14.6251,58.7454],[14.5964,58.7052],[14.5463,58.6969],[14.5376,58.7245],[14.4681,58.7244],[14.4576,58.7972],[14.4024,58.7992],[14.3268,58.8341],[14.3704,58.8701],[14.3084,58.893],[14.268,58.9997],[14.3293,59.098],[14.2808,59.1581],[14.2995,59.1825],[14.2841,59.232],[14.3193,59.3127],[14.3188,59.323],[14.3754,59.3975],[14.463,59.4475],[14.398,59.5157],[14.4173,59.5419],[14.4635,59.5324],[14.4601,59.5916],[14.421,59.6718],[14.4385,59.7071],[14.3841,59.7585],[14.4376,59.7758],[14.4161,59.831],[14.4311,59.908],[14.3758,59.9197],[14.3431,59.9555],[14.4629,59.9788],[14.4385,60.0257],[14.7454,60.0029],[14.7173,60.0947],[14.7913,60.1199],[14.8462,60.1226],[14.853,60.0861],[14.9236,60.0608],[14.9933,60.0826],[15.0185,60.065],[15.0666,60.0697],[15.1244,60.0251],[15.2169,59.9912],[15.3246,59.9293],[15.4018,59.8611],[15.4073,59.8162],[15.4817,59.7958],[15.5348,59.7083],[15.4899,59.6578],[15.5336,59.6299],[15.5988,59.6335],[15.6105,59.5912],[15.6134,59.5258],[15.7094,59.5299],[15.6736,59.4934],[15.7059,59.4789],[15.7075,59.4244],[15.5794,59.4288],[15.6417,59.354],[15.6169,59.3229],[15.5509,59.3285],[15.4221,59.3068],[15.2812,59.3092],[15.2862,59.2836],[15.4281,59.254],[15.5609,59.279],[15.6411,59.2273],[15.6021,59.1952],[15.6531,59.156],[15.7698,59.15],[15.7717,59.12],[15.6785,59.1129],[15.6263,59.0688],[15.6059,59.0247],[15.6323,59.0032],[15.5307,58.9446],[15.5664,58.9112],[15.5235,58.8756],[15.44,58.8768],[15.4194,58.8309],[15.3873,58.8599],[15.3392,58.8472],[15.2474,58.875],[15.1869,58.8367],[15.1344,58.836],[15.0859,58.8043],[15.0498,58.7646],[15.0283,58.7278],[14.9396,58.6991],[14.9797,58.7449],[14.9729,58.7796],[14.9404,58.7741],[14.9372,58.8268],[14.8735,58.8048],[14.8174,58.7336],[14.7215,58.7018],[14.6843,58.746],[14.6251,58.7454]],[[15.0475,59.1411],[15.0602,59.1837],[15.06,59.1839],[15.0475,59.1411]]]}},{"type":"Feature","properties":{"code":"19"},"geometry":{"type":"Polygon","coordinates":[[[15.4817,59.7958],[15.4073,59.8162],[15.4018,59.8611],[15.4816,59.9062],[15.5302,59.9614],[15.609,59.9588],[15.678,59.9452],[15.7095,60.0182],[15.6627,60.0499],[15.7186,60.1028],[15.7154,60.1356],[15.755,60.1496],[15.7791,60.1822],[15.894,60.1687],[15.9668,60.1989],[16.0193,60.1909],[16.053,60.1503],[16.1067,60.1471],[16.1706,60.1269],[16.1533,60.0863],[16.1918,60.0761],[16.3778,60.0852],[16.4205,60.1242],[16.5156,60.1545],[16.5163,60.1853],[16.5702,60.1964],[16.7204,60.1999],[16.7351,60.1187],[16.693,60.1105],[16.7218,60.0416],[16.6919,60.0108],[16.7896,59.97],[16.7985,59.9222],[16.7782,59.9],[16.8313,59.8602],[16.7998,59.8188],[16.7442,59.7813],[16.7946,59.732],[16.869,59.6744],[16.9048,59.5674],[16.8204,59.5725],[16.7927,59.5489],[16.7134,59.5324],[16.6559,59.5724],[16.5842,59.5989],[16.5154,59.5815],[16.5506,59.552],[16.4849,59.5182],[16.4461,59.4917],[16.325,59.4776],[16.241,59.4983],[16.1754,59.4779],[16.0584,59.4796],[16.087,59.4362],[16.2308,59.4427],[16.2241,59.415],[16.2726,59.3957],[16.2594,59.3711],[16.1353,59.3571],[16.0518,59.364],[15.9976,59.3746],[15.9262,59.3427],[15.8544,59.2997],[15.7958,59.2852],[15.7579,59.3201],[15.6169,59.3229],[15.6417,59.354],[15.5794,59.4288],[15.7075,59.4244],[15.7059,59.4789],[15.6736,59.4934],[15.7094,59.5299],[15.6134,59.5258],[15.6105,59.5912],[15.5988,59.6335],[15.5336,59.6299],[15.4899,59.6578],[15.5348,59.7083],[15.4817,59.7958]]]}},{"type":"Feature","properties":{"code":"20"},"geometry":{"type":"Polygon","coordinates":[[[14.0387,60.2385],[14.0188,60.2683],[13.9495,60.2668],[13.9679,60.1886],[13.8481,60.2684],[13.6925,60.4176],[13.5679,60.4214],[13.4969,60.4471],[13.4373,60.5271],[13.3053,60.6368],[13.2602,60.698],[13.205,60.6983],[13.1755,60.7661],[12.7024,61.008],[12.6764,61.0581],[12.6979,61.1541],[12.7811,61.1874],[12.8275,61.2471],[12.8622,61.3607],[12.5828,61.574],[12.4347,61.5678],[12.1609,61.7253],[12.3022,62.2616],[12.6168,62.2216],[12.7956,62.2303],[12.9405,62.1463],[13.0384,62.0853],[13.1594,62.0271],[13.2957,62.0619],[13.3227,62.0176],[13.3713,62.0104],[13.2092,61.9352],[13.4161,61.8266],[13.5145,61.7364],[13.5066,61.6916],[13.5647,61.6551],[13.6131,61.6712],[13.8901,61.6512],[13.9831,61.6347],[14.2014,61.6326],[14.3568,61.6132],[14.4148,61.5862],[14.5007,61.6302],[14.6576,61.6013],[14.6841,61.5476],[14.6476,61.5006],[14.7484,61.5121],[14.8026,61.5004],[14.9172,61.5057],[15.0693,61.4928],[15.159,61.6041],[15.2302,61.5124],[15.6543,61.2234],[15.6808,61.1314],[15.7581,61.0602],[15.9341,61.0122],[16.1426,61.0007],[16.2402,60.8784],[16.401,60.7877],[16.3748,60.7398],[16.305,60.7132],[16.3222,60.6795],[16.2413,60.6186],[16.1472,60.6049],[16.2333,60.52],[16.2754,60.512],[16.3011,60.4833],[16.4031,60.3815],[16.5207,60.3645],[16.5791,60.3409],[16.5876,60.3041],[16.6284,60.2924],[16.6393,60.2373],[16.7204,60.1999],[16.5702,60.1964],[16.5163,60.1853],[16.5156,60.1545],[16.4205,60.1242],[16.3778,60.0852],[16.1918,60.0761],[16.1533,60.0863],[16.1706,60.1269],[16.1067,60.1471],[16.053,60.1503],[16.0193,60.1909],[15.9668,60.1989],[15.894,60.1687],[15.7791,60.1822],[15.755,60.1496],[15.7154,60.1356],[15.7186,60.1028],[15.6627,60.0499],[15.7095,60.0182],[15.678,59.9452],[15.609,59.9588],[15.5302,59.9614],[15.4816,59.9062],[15.4018,59.8611],[15.3246,59.9293],[15.2169,59.9912],[15.1244,60.0251],[15.0666,60.0697],[15.0185,60.065],[14.9933,60.0826],[14.9236,60.0608],[14.853,60.0861],[14.8462,60.1226],[14.7913,60.1199],[14.7173,60.0947],[14.7454,60.0029],[14.4385,60.0257],[14.2154,60.0987],[14.1866,60.1759],[14.1378,60.2443],[14.0387,60.2385]],[[14.7352,60.7807],[14.9073,60.8247],[14.9657,60.753],[14.9825,60.8299],[15.0574,60.8454],[15.1196,60.8808],[15.0367,60.9086],[14.9832,60.8841],[14.9077,60.8608],[14.7464,60.9392],[14.6868,60.9385],[14.6023,60.9967],[14.5525,60.9719],[14.5673,60.9351],[14.6408,60.9316],[14.6911,60.9057],[14.644,60.8935],[14.5662,60.8936],[14.6713,60.829],[14.7352,60.7807]]]}},{"type":"Feature","properties":{"code":"21"},"geometry":{"type":"Polygon","coordinates":[[[16.2402,60.8784],[16.1426,61.0007],[15.9341,61.0122],[15.7581,61.0602],[15.6808,61.1314],[15.6543,61.2234],[15.2302,61.5124],[15.159,61.6041],[15.0693,61.4928],[14.9172,61.5057],[14.8026,61.5004],[14.7484,61.5121],[14.6476,61.5006],[14.6841,61.5476],[14.6576,61.6013],[14.5007,61.6302],[14.5267,61.7916],[14.6899,61.9124],[14.7288,61.8799],[14.7983,61.9001],[14.8728,61.8387],[14.8957,61.89],[15.04,61.8848],[15.1036,61.8618],[15.1029,61.9088],[15.1115,61.9627],[15.0833,62.0075],[15.4123,62.1284],[15.3956,62.2034],[15.3344,62.2228],[15.3244,62.289],[15.4786,62.3529],[15.62,62.3583],[16.0215,62.2708],[16.0601,62.2509],[16.2403,62.2536],[16.5128,62.2487],[16.7947,62.2153],[16.9057,62.1831],[16.9693,62.1882],[17.0924,62.1714],[17.1429,62.1845],[17.2371,62.1621],[17.3284,62.1689],[17.4796,62.1474],[17.4355,62.0129],[17.3591,61.9526],[17.3168,61.864],[17.3864,61.8273],[17.3798,61.7678],[17.4136,61.7401],[17.5073,61.7211],[17.4699,61.6365],[17.4085,61.6479],[17.3738,61.6847],[17.2694,61.7061],[17.1741,61.6035],[17.113,61.5512],[17.1789,61.4779],[17.106,61.4185],[17.1201,61.3674],[17.2395,61.2978],[17.2023,61.2349],[17.1323,61.2014],[17.1581,61.0569],[17.1434,61.0319],[17.2205,61.0013],[17.1616,60.9526],[17.2706,60.8527],[17.2374,60.8023],[17.344,60.7478],[17.2165,60.6911],[17.3508,60.6523],[17.3008,60.4711],[17.2041,60.4287],[17.1995,60.3092],[17.1004,60.2687],[16.9058,60.2871],[16.865,60.2626],[16.8812,60.2416],[16.7974,60.2017],[16.7204,60.1999],[16.6393,60.2373],[16.6284,60.2924],[16.5876,60.3041],[16.5791,60.3409],[16.5207,60.3645],[16.4031,60.3815],[16.3011,60.4833],[16.2754,60.512],[16.2333,60.52],[16.1472,60.6049],[16.2413,60.6186],[16.3222,60.6795],[16.305,60.7132],[16.3748,60.7398],[16.401,60.7877],[16.2402,60.8784]]]}},{"type":"Feature","properties":{"code":"22"},"geometry":{"type":"Polygon","coordinates":[[[16.0601,62.2509],[16.0215,62.2708],[15.62,62.3583],[15.4786,62.3529],[15.3244,62.289],[15.2731,62.3073],[15.159,62.2677],[14.9471,62.325],[14.8686,62.4083],[14.8054,62.416],[14.7803,62.4666],[14.8352,62.4677],[14.801,62.5415],[14.7948,62.6015],[14.9164,62.6133],[15.0778,62.6044],[15.1412,62.5742],[15.2561,62.612],[15.5954,62.6346],[15.9634,62.7183],[16.1281,62.7002],[16.2529,62.724],[16.3681,62.7078],[16.3975,62.7755],[16.4726,62.822],[16.6605,62.9325],[17.0119,62.9542],[16.6019,63.1843],[16.1263,63.3795],[16.1352,63.4406],[16.0554,63.4593],[15.9833,63.4469],[15.9725,63.5163],[15.991,63.5642],[15.797,63.6739],[15.8782,63.6878],[15.9884,63.6585],[16.0976,63.6997],[16.2513,63.6661],[16.3026,63.6886],[16.3713,63.6722],[16.6134,63.7184],[16.5746,63.8221],[16.5878,63.8938],[16.7241,64.0269],[16.8451,63.9679],[17.2606,63.9298],[17.7075,63.8933],[18.3818,64.0083],[18.4731,63.9674],[18.4246,63.9253],[18.4878,63.8499],[18.6324,63.8397],[18.7509,63.8258],[18.8004,63.7967],[18.9026,63.8021],[18.9639,63.7684],[19.1812,63.6082],[19.1774,63.5666],[19.2782,63.4793],[19.2282,63.3403],[19.1144,63.3289],[19.099,63.2462],[19.0181,63.2031],[18.9358,63.2312],[18.7191,63.1689],[18.608,63.1733],[18.5012,63.0815],[18.4859,63.0347],[18.4013,63.0335],[18.379,63.0041],[18.5423,62.9906],[18.4897,62.9216],[18.3826,62.8437],[18.2694,62.8845],[18.2186,62.8645],[18.2767,62.8367],[18.1353,62.7721],[18.0077,62.7858],[18.0211,62.7509],[18.157,62.7542],[18.0481,62.6782],[17.9762,62.6522],[18.0626,62.6153],[17.9064,62.5607],[17.8461,62.4848],[17.7487,62.5115],[17.6763,62.4818],[17.696,62.4333],[17.5486,62.4504],[17.4771,62.5223],[17.3887,62.5075],[17.3895,62.4808],[17.4932,62.4613],[17.5114,62.382],[17.4341,62.3726],[17.4143,62.3339],[17.4927,62.2725],[17.6419,62.2516],[17.612,62.2064],[17.5238,62.1977],[17.4796,62.1474],[17.3284,62.1689],[17.2371,62.1621],[17.1429,62.1845],[17.0924,62.1714],[16.9693,62.1882],[16.9057,62.1831],[16.7947,62.2153],[16.5128,62.2487],[16.2403,62.2536],[16.0601,62.2509]]]}},{"type":"Feature","properties":{"code":"23"},"geometry":{"type":"Polygon","coordinates":[[[15.9833,63.4469],[16.0554,63.4593],[16.1352,63.4406],[16.1263,63.3795],[16.6019,63.1843],[17.0119,62.9542],[16.6605,62.9325],[16.4726,62.822],[16.3975,62.7755],[16.3681,62.7078],[16.2529,62.724],[16.1281,62.7002],[15.9634,62.7183],[15.5954,62.6346],[15.2561,62.612],[15.1412,62.5742],[15.0778,62.6044],[14.9164,62.6133],[14.7948,62.6015],[14.801,62.5415],[14.8352,62.4677],[14.7803,62.4666],[14.8054,62.416],[14.8686,62.4083],[14.9471,62.325],[15.159,62.2677],[15.2731,62.3073],[15.3244,62.289],[15.3344,62.2228],[15.3956,62.2034],[15.4123,62.1284],[15.0833,62.0075],[15.1115,61.9627],[15.1029,61.9088],[15.1036,61.8618],[15.04,61.8848],[14.8957,61.89],[14.8728,61.8387],[14.7983,61.9001],[14.7288,61.8799],[14.6899,61.9124],[14.5267,61.7916],[14.5007,61.6302],[14.4148,61.5862],[14.3568,61.6132],[14.2014,61.6326],[13.9831,61.6347],[13.8901,61.6512],[13.6131,61.6712],[13.5647,61.6551],[13.5066,61.6916],[13.5145,61.7364],[13.4161,61.8266],[13.2092,61.9352],[13.3713,62.0104],[13.3227,62.0176],[13.2957,62.0619],[13.1594,62.0271],[13.0384,62.0853],[12.9405,62.1463],[12.7956,62.2303],[12.6168,62.2216],[12.3022,62.2616],[12.0508,62.616],[12.1301,62.7513],[12.0743,62.9034],[12.1961,62.9956],[11.9622,63.2681],[12.1979,63.4709],[12.133,63.5842],[12.2729,63.6597],[12.2971,63.7149],[12.3635,63.7527],[12.6578,63.9714],[12.8715,64.0497],[13.1797,64.0959],[13.281,64.0865],[13.7061,64.049],[13.9623,64.0142],[14.1623,64.2014],[14.1298,64.406],[14.1236,64.4682],[14.0784,64.4916],[13.9157,64.5139],[13.6629,64.5898],[14.2106,65.0622],[14.3301,65.131],[14.6205,65.0244],[14.6742,65.0167],[14.7202,64.9889],[14.7914,64.954],[14.7865,64.9163],[14.8657,64.875],[14.9502,64.8732],[15.0314,64.8244],[15.0464,64.7659],[15.2316,64.7287],[15.3327,64.6626],[15.2642,64.6422],[15.335,64.6227],[15.3613,64.5944],[15.4223,64.6023],[15.424,64.5769],[15.5428,64.5333],[15.5729,64.4577],[15.6395,64.4563],[15.6267,64.5329],[15.703,64.5508],[15.7495,64.4906],[15.7577,64.4287],[16.0284,64.3498],[16.0329,64.2772],[16.2057,64.2844],[16.7241,64.0269],[16.5878,63.8938],[16.5746,63.8221],[16.6134,63.7184],[16.3713,63.6722],[16.3026,63.6886],[16.2513,63.6661],[16.0976,63.6997],[15.9884,63.6585],[15.8782,63.6878],[15.797,63.6739],[15.991,63.5642],[15.9725,63.5163],[15.9833,63.4469]],[[14.4783,63.2496],[14.4121,63.2398],[14.3083,63.2784],[14.1729,63.3021],[14.0062,63.3238],[14.1489,63.2055],[14.0484,63.2024],[14.1297,63.1702],[14.2494,63.1509],[14.3462,63.118],[14.369,63.0695],[14.4227,62.9919],[14.4235,62.9215],[14.3585,62.9134],[14.4178,62.8386],[14.4812,62.8214],[14.5256,62.899],[14.4878,63.0054],[14.457,63.0772],[14.4417,63.1356],[14.5163,63.1486],[14.5752,63.1623],[14.5258,63.1735],[14.4591,63.1981],[14.4729,63.2246],[14.5918,63.2194],[14.4783,63.2496]]]}},{"type":"Feature","properties":{"code":"24"},"geometry":{"type":"Polygon","coordinates":[[[19.7153,63.5212],[19.7466,63.4676],[19.6633,63.4432],[19.5771,63.523],[19.4625,63.5739],[19.4142,63.5448],[19.4749,63.4817],[19.3866,63.4649],[19.2782,63.4793],[19.1774,63.5666],[19.1812,63.6082],[18.9639,63.7684],[18.9026,63.8021],[18.8004,63.7967],[18.7509,63.8258],[18.6324,63.8397],[18.4878,63.8499],[18.4246,63.9253],[18.4731,63.9674],[18.3818,64.0083],[17.7075,63.8933],[17.2606,63.9298],[16.8451,63.9679],[16.7241,64.0269],[16.2057,64.2844],[16.0329,64.2772],[16.0284,64.3498],[15.7577,64.4287],[15.7495,64.4906],[15.703,64.5508],[15.6267,64.5329],[15.6395,64.4563],[15.5729,64.4577],[15.5428,64.5333],[15.424,64.5769],[15.4223,64.6023],[15.3613,64.5944],[15.335,64.6227],[15.2642,64.6422],[15.3327,64.6626],[15.2316,64.7287],[15.0464,64.7659],[15.0314,64.8244],[14.9502,64.8732],[14.8657,64.875],[14.7865,64.9163],[14.7914,64.954],[14.7202,64.9889],[14.6742,65.0167],[14.6205,65.0244],[14.3301,65.131],[14.371,65.26],[14.5,65.3145],[14.502,65.4577],[14.5434,65.6992],[14.6385,65.82],[14.5345,66.1383],[14.9802,66.1493],[15.0375,66.1524],[15.483,66.2922],[15.4647,66.3545],[15.8223,66.3002],[16.5787,66.0546],[16.7789,66.0531],[17.661,65.671],[17.793,65.6466],[18.1801,65.5921],[18.2306,65.5483],[18.2935,65.5254],[18.4264,65.5101],[18.5142,65.4879],[18.5798,65.4544],[18.7012,65.4517],[18.7502,65.4429],[18.7665,65.4182],[18.8225,65.4052],[18.8522,65.3813],[18.9434,65.3586],[19.0408,65.3409],[19.0441,65.317],[19.0894,65.3211],[19.2852,65.2579],[19.2502,65.2367],[19.2533,65.2127],[19.3344,65.1886],[19.4136,65.15],[19.5988,65.1911],[19.6537,65.2144],[19.881,65.3944],[20.755,65.2138],[21.2921,65.1703],[21.3123,65.1319],[21.5013,65.0806],[21.3573,64.9685],[21.2365,64.9515],[21.2671,64.8993],[21.1303,64.8305],[21.0162,64.8439],[21.0702,64.7862],[21.2534,64.774],[21.2429,64.6906],[21.1915,64.6639],[21.2515,64.611],[21.3653,64.5992],[21.4504,64.5549],[21.4868,64.4728],[21.5685,64.4746],[21.5683,64.4398],[21.4359,64.3508],[21.2244,64.2859],[21.0794,64.2137],[20.9578,64.151],[20.914,64.0559],[20.8223,63.9467],[20.7395,63.8708],[20.6629,63.8139],[20.5147,63.8064],[20.4293,63.7624],[20.3978,63.6901],[20.312,63.6918],[20.2864,63.661],[20.1175,63.6604],[20.0149,63.6706],[19.9949,63.6229],[19.91,63.6261],[19.7474,63.543],[19.7153,63.5212]]]}},{"type":"Feature","properties":{"code":"25"},"geometry":{"type":"Polygon","coordinates":[[[18.2306,65.5483],[18.1801,65.5921],[17.793,65.6466],[17.661,65.671],[16.7789,66.0531],[16.5787,66.0546],[15.8223,66.3002],[15.4647,66.3545],[15.3885,66.4844],[15.6343,66.5983],[15.9978,66.8783],[16.1059,66.9294],[16.3754,67.0196],[16.4246,67.1687],[16.3899,67.2326],[16.1139,67.4214],[16.1987,67.5079],[16.4165,67.5229],[16.5295,67.6044],[16.7114,67.8926],[16.7701,67.9133],[17.2007,68.0293],[17.2992,68.0967],[17.6585,68.023],[17.9173,67.945],[17.9453,67.9779],[18.1661,68.1689],[18.09,68.3823],[18.1115,68.5138],[18.3993,68.5591],[18.6013,68.489],[18.9804,68.5042],[19.913,68.3635],[20.2446,68.496],[19.9519,68.5563],[20.0827,68.5968],[20.2336,68.6741],[20.3421,68.8019],[20.3201,68.9113],[20.1138,69.0296],[20.5935,69.0478],[20.803,69.0293],[20.8821,68.9889],[20.9419,68.9772],[20.9162,68.9589],[20.863,68.9371],[20.9389,68.9005],[21.022,68.9036],[21.2436,68.8212],[21.3044,68.769],[21.3659,68.779],[21.4238,68.7655],[21.4323,68.7024],[21.513,68.6853],[21.6246,68.6693],[21.7292,68.6336],[21.7152,68.6016],[21.8491,68.5984],[22.0142,68.5559],[22.0105,68.5249],[22.0301,68.4994],[22.126,68.4843],[22.2342,68.481],[22.317,68.4852],[22.3531,68.4546],[22.4032,68.4707],[22.5887,68.4313],[22.6249,68.4411],[22.6613,68.4196],[22.7629,68.3906],[22.7931,68.4065],[22.8433,68.3911],[22.8359,68.3641],[22.9404,68.3403],[22.9735,68.3374],[23.0777,68.3135],[23.0844,68.2779],[23.1637,68.2469],[23.1609,68.2121],[23.1453,68.1729],[23.1809,68.1439],[23.2804,68.1596],[23.34,68.1296],[23.3967,68.0506],[23.4689,68.0477],[23.4807,68.0208],[23.5422,68.017],[23.5609,67.9783],[23.6444,67.9706],[23.6548,67.9123],[23.5357,67.8956],[23.4875,67.8299],[23.5062,67.7912],[23.4827,67.6881],[23.5562,67.6295],[23.5154,67.5668],[23.4686,67.5693],[23.4939,67.5411],[23.4147,67.493],[23.5069,67.4567],[23.5409,67.472],[23.685,67.4418],[23.7235,67.4566],[23.7857,67.4266],[23.7494,67.3931],[23.7458,67.3509],[23.7932,67.3427],[23.7399,67.2905],[23.6127,67.2786],[23.5802,67.2355],[23.6061,67.209],[23.5759,67.1768],[23.6779,67.106],[23.6834,67.0556],[23.7702,67.0065],[23.8224,66.9996],[23.8312,66.9691],[23.8877,66.9544],[23.8896,66.9135],[23.9809,66.8582],[24.0136,66.8217],[23.9944,66.7847],[23.9349,66.7943],[23.917,66.7665],[23.9173,66.6869],[23.8907,66.6526],[23.8891,66.5843],[23.82,66.556],[23.8188,66.5247],[23.7391,66.5159],[23.7281,66.4837],[23.6541,66.4688],[23.6465,66.4419],[23.6966,66.4037],[23.6338,66.3175],[23.729,66.1897],[23.8617,66.1653],[23.9387,66.1594],[23.9277,66.1272],[23.9533,66.1098],[23.9467,66.0846],[24.021,66.0215],[24.0417,65.9602],[24.1496,65.8038],[23.8393,65.7941],[23.7556,65.8266],[23.6866,65.8318],[23.6664,65.8061],[23.5954,65.7978],[23.488,65.8239],[23.4302,65.7798],[23.2845,65.8071],[23.2206,65.8207],[23.1734,65.7939],[23.1106,65.717],[23.0142,65.7595],[22.8338,65.7971],[22.7822,65.872],[22.7015,65.8961],[22.6669,65.8828],[22.6863,65.7981],[22.7784,65.7471],[22.7776,65.714],[22.7051,65.7282],[22.6192,65.7798],[22.5067,65.7817],[22.5135,65.8179],[22.4396,65.8707],[22.3362,65.8544],[22.2962,65.79],[22.2929,65.7186],[22.3056,65.6604],[22.3222,65.6092],[22.3731,65.5641],[22.3241,65.5557],[22.2019,65.5761],[22.1436,65.5667],[22.1389,65.5249],[22.0294,65.5274],[21.8622,65.5296],[21.9842,65.4672],[21.9099,65.4212],[21.7971,65.405],[21.6351,65.4156],[21.4841,65.3958],[21.4352,65.3688],[21.654,65.2983],[21.6345,65.2689],[21.543,65.2439],[21.5771,65.1473],[21.5013,65.0806],[21.3123,65.1319],[21.2921,65.1703],[20.755,65.2138],[19.881,65.3944],[19.6537,65.2144],[19.5988,65.1911],[19.4136,65.15],[19.3344,65.1886],[19.2533,65.2127],[19.2502,65.2367],[19.2852,65.2579],[19.0894,65.3211],[19.0441,65.317],[19.0408,65.3409],[18.9434,65.3586],[18.8522,65.3813],[18.8225,65.4052],[18.7665,65.4182],[18.7502,65.4429],[18.7012,65.4517],[18.5798,65.4544],[18.5142,65.4879],[18.4264,65.5101],[18.2935,65.5254],[18.2306,65.5483]],[[18.4978,65.6364],[18.5083,65.663],[18.4072,65.6975],[18.3556,65.7239],[18.3766,65.7662],[18.3008,65.7875],[18.1727,65.7884],[17.9224,65.924],[17.9692,65.9774],[17.9266,66.0418],[18.0732,66.051],[18.109,66.0742],[18.0529,66.1031],[17.9616,66.0869],[17.8686,66.1253],[17.8147,66.1849],[17.6568,66.2197],[17.5498,66.2714],[17.4284,66.3219],[17.3217,66.377],[17.0896,66.4244],[17.0618,66.3969],[17.3191,66.3318],[17.4507,66.2589],[17.461,66.213],[17.616,66.1822],[17.7381,66.1241],[17.8506,66.0774],[17.7652,66.0643],[17.6447,66.0406],[17.7504,65.9762],[17.7597,65.9411],[17.7199,65.9054],[17.7367,65.8426],[17.8211,65.8429],[17.8733,65.8997],[18.024,65.805],[18.1171,65.6773],[18.2093,65.6879],[18.2703,65.6706],[18.4978,65.6364]]]}}]}